[{"OBJECT_NAME":"COSMOS 2408","OBJECT_ID":"2004-037A","EPOCH":"2026-03-09T23:28:13.901088","MEAN_MOTION":12.45676776,"ECCENTRICITY":0.00167633,"INCLINATION":82.4873,"RA_OF_ASC_NODE":28.0054,"ARG_OF_PERICENTER":122.8917,"MEAN_ANOMALY":237.378,"EPHEMERIS_TYPE":0,"CLASSIFICATION_TYPE":"U","NORAD_CAT_ID":28419,"ELEMENT_SET_NO":999,"REV_AT_EPOCH":97555,"BSTAR":1.8849562e-5,"MEAN_MOTION_DOT":1.3e-7,"MEAN_MOTION_DDOT":0},{"OBJECT_NAME":"COSMOS 1852","OBJECT_ID":"1987-051A","EPOCH":"2026-03-09T23:10:55.568352","MEAN_MOTION":12.44884694,"ECCENTRICITY":0.00164041,"INCLINATION":74.0007,"RA_OF_ASC_NODE":254.7352,"ARG_OF_PERICENTER":93.5249,"MEAN_ANOMALY":266.7675,"EPHEMERIS_TYPE":0,"CLASSIFICATION_TYPE":"U","NORAD_CAT_ID":18113,"ELEMENT_SET_NO":999,"REV_AT_EPOCH":76008,"BSTAR":4.6704117e-5,"MEAN_MOTION_DOT":-9.0e-8,"MEAN_MOTION_DDOT":0}]
